<?xml version="1.0" encoding="UTF-8" ?>
<gpx version="1.1" xmlns:xsi="http://www.w3.org/2001/XMLSchema-instance" 
    xmlns="http://www.topografix.com/GPX/1/1"
    xsi:schemaLocation="http://www.topografix.com/GPX/1/1 http://www.topografix.com/GPX/1/1/gpx.xsd" 
    creator="Openrunner - https://www.openrunner.com" >	<trk>
	                   <name>Marathon Genève 2026-21263308</name>
						<trkseg>
					<trkpt lat="46.206250" lon="6.172940">
						<ele>428</ele>
						<time>2025-12-16T07:56:00Z</time>
					</trkpt>
					<trkpt lat="46.206720" lon="6.174320">
						<ele>428</ele>
						<time>2025-12-16T07:56:36Z</time>
					</trkpt>
					<trkpt lat="46.206890" lon="6.174930">
						<ele>425</ele>
						<time>2025-12-16T07:56:51Z</time>
					</trkpt>
					<trkpt lat="46.206840" lon="6.175130">
						<ele>425</ele>
						<time>2025-12-16T07:56:56Z</time>
					</trkpt>
					<trkpt lat="46.205770" lon="6.176020">
						<ele>427</ele>
						<time>2025-12-16T07:57:37Z</time>
					</trkpt>
					<trkpt lat="46.205730" lon="6.176420">
						<ele>426</ele>
						<time>2025-12-16T07:57:46Z</time>
					</trkpt>
					<trkpt lat="46.205700" lon="6.177580">
						<ele>424</ele>
						<time>2025-12-16T07:58:13Z</time>
					</trkpt>
					<trkpt lat="46.205690" lon="6.178320">
						<ele>424</ele>
						<time>2025-12-16T07:58:30Z</time>
					</trkpt>
					<trkpt lat="46.205770" lon="6.179070">
						<ele>424</ele>
						<time>2025-12-16T07:58:48Z</time>
					</trkpt>
					<trkpt lat="46.206010" lon="6.179530">
						<ele>423</ele>
						<time>2025-12-16T07:59:01Z</time>
					</trkpt>
					<trkpt lat="46.206060" lon="6.179680">
						<ele>423</ele>
						<time>2025-12-16T07:59:05Z</time>
					</trkpt>
					<trkpt lat="46.206080" lon="6.179950">
						<ele>424</ele>
						<time>2025-12-16T07:59:11Z</time>
					</trkpt>
					<trkpt lat="46.205560" lon="6.182090">
						<ele>424</ele>
						<time>2025-12-16T08:00:03Z</time>
					</trkpt>
					<trkpt lat="46.204950" lon="6.185060">
						<ele>431</ele>
						<time>2025-12-16T08:01:15Z</time>
					</trkpt>
					<trkpt lat="46.204640" lon="6.186010">
						<ele>431</ele>
						<time>2025-12-16T08:01:39Z</time>
					</trkpt>
					<trkpt lat="46.204380" lon="6.186490">
						<ele>430</ele>
						<time>2025-12-16T08:01:53Z</time>
					</trkpt>
					<trkpt lat="46.203600" lon="6.187790">
						<ele>428</ele>
						<time>2025-12-16T08:02:33Z</time>
					</trkpt>
					<trkpt lat="46.203560" lon="6.187970">
						<ele>428</ele>
						<time>2025-12-16T08:02:37Z</time>
					</trkpt>
					<trkpt lat="46.203540" lon="6.188430">
						<ele>428</ele>
						<time>2025-12-16T08:02:48Z</time>
					</trkpt>
					<trkpt lat="46.204300" lon="6.190870">
						<ele>430</ele>
						<time>2025-12-16T08:03:50Z</time>
					</trkpt>
					<trkpt lat="46.205020" lon="6.192870">
						<ele>427</ele>
						<time>2025-12-16T08:04:42Z</time>
					</trkpt>
					<trkpt lat="46.206110" lon="6.196090">
						<ele>426</ele>
						<time>2025-12-16T08:06:04Z</time>
					</trkpt>
					<trkpt lat="46.206380" lon="6.197230">
						<ele>427</ele>
						<time>2025-12-16T08:06:32Z</time>
					</trkpt>
					<trkpt lat="46.206530" lon="6.197990">
						<ele>427</ele>
						<time>2025-12-16T08:06:51Z</time>
					</trkpt>
					<trkpt lat="46.206730" lon="6.199450">
						<ele>429</ele>
						<time>2025-12-16T08:07:25Z</time>
					</trkpt>
					<trkpt lat="46.206810" lon="6.200350">
						<ele>426</ele>
						<time>2025-12-16T08:07:46Z</time>
					</trkpt>
					<trkpt lat="46.206880" lon="6.200480">
						<ele>426</ele>
						<time>2025-12-16T08:07:50Z</time>
					</trkpt>
					<trkpt lat="46.207030" lon="6.200610">
						<ele>425</ele>
						<time>2025-12-16T08:07:56Z</time>
					</trkpt>
					<trkpt lat="46.208060" lon="6.200930">
						<ele>424</ele>
						<time>2025-12-16T08:08:31Z</time>
					</trkpt>
					<trkpt lat="46.208760" lon="6.201280">
						<ele>425</ele>
						<time>2025-12-16T08:08:55Z</time>
					</trkpt>
					<trkpt lat="46.209290" lon="6.201740">
						<ele>425</ele>
						<time>2025-12-16T08:09:16Z</time>
					</trkpt>
					<trkpt lat="46.209660" lon="6.202200">
						<ele>425</ele>
						<time>2025-12-16T08:09:32Z</time>
					</trkpt>
					<trkpt lat="46.209980" lon="6.202740">
						<ele>425</ele>
						<time>2025-12-16T08:09:49Z</time>
					</trkpt>
					<trkpt lat="46.210270" lon="6.203480">
						<ele>426</ele>
						<time>2025-12-16T08:10:08Z</time>
					</trkpt>
					<trkpt lat="46.210460" lon="6.204240">
						<ele>427</ele>
						<time>2025-12-16T08:10:27Z</time>
					</trkpt>
					<trkpt lat="46.210720" lon="6.205870">
						<ele>427</ele>
						<time>2025-12-16T08:11:06Z</time>
					</trkpt>
					<trkpt lat="46.211230" lon="6.207460">
						<ele>427</ele>
						<time>2025-12-16T08:11:46Z</time>
					</trkpt>
					<trkpt lat="46.211340" lon="6.207970">
						<ele>427</ele>
						<time>2025-12-16T08:11:58Z</time>
					</trkpt>
					<trkpt lat="46.211510" lon="6.209330">
						<ele>426</ele>
						<time>2025-12-16T08:12:30Z</time>
					</trkpt>
					<trkpt lat="46.211590" lon="6.209840">
						<ele>426</ele>
						<time>2025-12-16T08:12:42Z</time>
					</trkpt>
					<trkpt lat="46.211760" lon="6.210330">
						<ele>426</ele>
						<time>2025-12-16T08:12:55Z</time>
					</trkpt>
					<trkpt lat="46.212550" lon="6.211680">
						<ele>427</ele>
						<time>2025-12-16T08:13:36Z</time>
					</trkpt>
					<trkpt lat="46.212630" lon="6.211840">
						<ele>426</ele>
						<time>2025-12-16T08:13:40Z</time>
					</trkpt>
					<trkpt lat="46.213490" lon="6.214340">
						<ele>427</ele>
						<time>2025-12-16T08:14:45Z</time>
					</trkpt>
					<trkpt lat="46.213940" lon="6.215260">
						<ele>429</ele>
						<time>2025-12-16T08:15:11Z</time>
					</trkpt>
					<trkpt lat="46.213960" lon="6.215450">
						<ele>429</ele>
						<time>2025-12-16T08:15:15Z</time>
					</trkpt>
					<trkpt lat="46.213430" lon="6.216050">
						<ele>428</ele>
						<time>2025-12-16T08:15:38Z</time>
					</trkpt>
					<trkpt lat="46.213120" lon="6.216340">
						<ele>429</ele>
						<time>2025-12-16T08:15:50Z</time>
					</trkpt>
					<trkpt lat="46.212540" lon="6.216780">
						<ele>432</ele>
						<time>2025-12-16T08:16:12Z</time>
					</trkpt>
					<trkpt lat="46.212590" lon="6.217020">
						<ele>432</ele>
						<time>2025-12-16T08:16:18Z</time>
					</trkpt>
					<trkpt lat="46.213920" lon="6.218700">
						<ele>430</ele>
						<time>2025-12-16T08:17:17Z</time>
					</trkpt>
					<trkpt lat="46.214440" lon="6.219140">
						<ele>430</ele>
						<time>2025-12-16T08:17:37Z</time>
					</trkpt>
					<trkpt lat="46.215210" lon="6.219580">
						<ele>431</ele>
						<time>2025-12-16T08:18:04Z</time>
					</trkpt>
					<trkpt lat="46.215600" lon="6.219660">
						<ele>430</ele>
						<time>2025-12-16T08:18:18Z</time>
					</trkpt>
					<trkpt lat="46.216250" lon="6.219590">
						<ele>430</ele>
						<time>2025-12-16T08:18:39Z</time>
					</trkpt>
					<trkpt lat="46.216640" lon="6.219590">
						<ele>430</ele>
						<time>2025-12-16T08:18:52Z</time>
					</trkpt>
					<trkpt lat="46.217080" lon="6.219710">
						<ele>430</ele>
						<time>2025-12-16T08:19:07Z</time>
					</trkpt>
					<trkpt lat="46.217600" lon="6.219910">
						<ele>431</ele>
						<time>2025-12-16T08:19:25Z</time>
					</trkpt>
					<trkpt lat="46.218220" lon="6.220070">
						<ele>429</ele>
						<time>2025-12-16T08:19:46Z</time>
					</trkpt>
					<trkpt lat="46.218370" lon="6.220410">
						<ele>429</ele>
						<time>2025-12-16T08:19:55Z</time>
					</trkpt>
					<trkpt lat="46.219010" lon="6.221340">
						<ele>430</ele>
						<time>2025-12-16T08:20:26Z</time>
					</trkpt>
					<trkpt lat="46.219120" lon="6.221560">
						<ele>430</ele>
						<time>2025-12-16T08:20:32Z</time>
					</trkpt>
					<trkpt lat="46.219210" lon="6.221860">
						<ele>430</ele>
						<time>2025-12-16T08:20:40Z</time>
					</trkpt>
					<trkpt lat="46.219470" lon="6.223590">
						<ele>432</ele>
						<time>2025-12-16T08:21:20Z</time>
					</trkpt>
					<trkpt lat="46.219530" lon="6.223760">
						<ele>432</ele>
						<time>2025-12-16T08:21:25Z</time>
					</trkpt>
					<trkpt lat="46.219680" lon="6.223970">
						<ele>432</ele>
						<time>2025-12-16T08:21:32Z</time>
					</trkpt>
					<trkpt lat="46.219970" lon="6.224170">
						<ele>432</ele>
						<time>2025-12-16T08:21:43Z</time>
					</trkpt>
					<trkpt lat="46.220650" lon="6.224740">
						<ele>430</ele>
						<time>2025-12-16T08:22:09Z</time>
					</trkpt>
					<trkpt lat="46.220280" lon="6.225520">
						<ele>428</ele>
						<time>2025-12-16T08:22:31Z</time>
					</trkpt>
					<trkpt lat="46.220240" lon="6.225680">
						<ele>428</ele>
						<time>2025-12-16T08:22:35Z</time>
					</trkpt>
					<trkpt lat="46.220610" lon="6.226220">
						<ele>428</ele>
						<time>2025-12-16T08:22:52Z</time>
					</trkpt>
					<trkpt lat="46.220880" lon="6.226600">
						<ele>428</ele>
						<time>2025-12-16T08:23:05Z</time>
					</trkpt>
					<trkpt lat="46.221900" lon="6.227750">
						<ele>428</ele>
						<time>2025-12-16T08:23:48Z</time>
					</trkpt>
					<trkpt lat="46.222380" lon="6.228480">
						<ele>429</ele>
						<time>2025-12-16T08:24:11Z</time>
					</trkpt>
					<trkpt lat="46.223080" lon="6.230160">
						<ele>428</ele>
						<time>2025-12-16T08:24:56Z</time>
					</trkpt>
					<trkpt lat="46.223710" lon="6.231700">
						<ele>428</ele>
						<time>2025-12-16T08:25:38Z</time>
					</trkpt>
					<trkpt lat="46.224080" lon="6.232370">
						<ele>429</ele>
						<time>2025-12-16T08:25:57Z</time>
					</trkpt>
					<trkpt lat="46.224190" lon="6.232510">
						<ele>429</ele>
						<time>2025-12-16T08:26:02Z</time>
					</trkpt>
					<trkpt lat="46.224340" lon="6.232700">
						<ele>430</ele>
						<time>2025-12-16T08:26:09Z</time>
					</trkpt>
					<trkpt lat="46.224580" lon="6.233120">
						<ele>431</ele>
						<time>2025-12-16T08:26:21Z</time>
					</trkpt>
					<trkpt lat="46.225130" lon="6.234490">
						<ele>435</ele>
						<time>2025-12-16T08:26:58Z</time>
					</trkpt>
					<trkpt lat="46.225490" lon="6.235120">
						<ele>435</ele>
						<time>2025-12-16T08:27:17Z</time>
					</trkpt>
					<trkpt lat="46.225810" lon="6.235350">
						<ele>430</ele>
						<time>2025-12-16T08:27:29Z</time>
					</trkpt>
					<trkpt lat="46.228060" lon="6.235920">
						<ele>428</ele>
						<time>2025-12-16T08:28:45Z</time>
					</trkpt>
					<trkpt lat="46.229190" lon="6.236080">
						<ele>429</ele>
						<time>2025-12-16T08:29:23Z</time>
					</trkpt>
					<trkpt lat="46.227610" lon="6.243880">
						<ele>432</ele>
						<time>2025-12-16T08:32:30Z</time>
					</trkpt>
					<trkpt lat="46.231230" lon="6.245600">
						<ele>433</ele>
						<time>2025-12-16T08:34:38Z</time>
					</trkpt>
					<trkpt lat="46.232830" lon="6.246090">
						<ele>437</ele>
						<time>2025-12-16T08:35:32Z</time>
					</trkpt>
					<trkpt lat="46.233050" lon="6.246740">
						<ele>441</ele>
						<time>2025-12-16T08:35:49Z</time>
					</trkpt>
					<trkpt lat="46.233590" lon="6.246970">
						<ele>444</ele>
						<time>2025-12-16T08:36:08Z</time>
					</trkpt>
					<trkpt lat="46.233970" lon="6.247380">
						<ele>447</ele>
						<time>2025-12-16T08:36:23Z</time>
					</trkpt>
					<trkpt lat="46.234240" lon="6.248130">
						<ele>447</ele>
						<time>2025-12-16T08:36:43Z</time>
					</trkpt>
					<trkpt lat="46.234580" lon="6.248350">
						<ele>447</ele>
						<time>2025-12-16T08:36:55Z</time>
					</trkpt>
					<trkpt lat="46.234840" lon="6.248600">
						<ele>448</ele>
						<time>2025-12-16T08:37:06Z</time>
					</trkpt>
					<trkpt lat="46.235030" lon="6.248340">
						<ele>448</ele>
						<time>2025-12-16T08:37:15Z</time>
					</trkpt>
					<trkpt lat="46.235230" lon="6.248110">
						<ele>448</ele>
						<time>2025-12-16T08:37:23Z</time>
					</trkpt>
					<trkpt lat="46.235930" lon="6.247420">
						<ele>448</ele>
						<time>2025-12-16T08:37:51Z</time>
					</trkpt>
					<trkpt lat="46.236280" lon="6.246840">
						<ele>449</ele>
						<time>2025-12-16T08:38:09Z</time>
					</trkpt>
					<trkpt lat="46.236510" lon="6.246250">
						<ele>448</ele>
						<time>2025-12-16T08:38:25Z</time>
					</trkpt>
					<trkpt lat="46.236670" lon="6.245410">
						<ele>444</ele>
						<time>2025-12-16T08:38:45Z</time>
					</trkpt>
					<trkpt lat="46.236780" lon="6.244450">
						<ele>437</ele>
						<time>2025-12-16T08:39:07Z</time>
					</trkpt>
					<trkpt lat="46.239480" lon="6.235780">
						<ele>431</ele>
						<time>2025-12-16T08:42:47Z</time>
					</trkpt>
					<trkpt lat="46.239960" lon="6.234520">
						<ele>431</ele>
						<time>2025-12-16T08:43:20Z</time>
					</trkpt>
					<trkpt lat="46.241260" lon="6.231310">
						<ele>431</ele>
						<time>2025-12-16T08:44:46Z</time>
					</trkpt>
					<trkpt lat="46.241390" lon="6.231260">
						<ele>431</ele>
						<time>2025-12-16T08:44:50Z</time>
					</trkpt>
					<trkpt lat="46.243980" lon="6.233420">
						<ele>433</ele>
						<time>2025-12-16T08:46:30Z</time>
					</trkpt>
					<trkpt lat="46.244260" lon="6.233610">
						<ele>433</ele>
						<time>2025-12-16T08:46:40Z</time>
					</trkpt>
					<trkpt lat="46.244740" lon="6.233850">
						<ele>435</ele>
						<time>2025-12-16T08:46:57Z</time>
					</trkpt>
					<trkpt lat="46.246030" lon="6.234040">
						<ele>439</ele>
						<time>2025-12-16T08:47:40Z</time>
					</trkpt>
					<trkpt lat="46.246600" lon="6.234030">
						<ele>441</ele>
						<time>2025-12-16T08:48:00Z</time>
					</trkpt>
					<trkpt lat="46.246730" lon="6.234320">
						<ele>442</ele>
						<time>2025-12-16T08:48:07Z</time>
					</trkpt>
					<trkpt lat="46.246840" lon="6.234990">
						<ele>440</ele>
						<time>2025-12-16T08:48:23Z</time>
					</trkpt>
					<trkpt lat="46.246760" lon="6.235390">
						<ele>439</ele>
						<time>2025-12-16T08:48:33Z</time>
					</trkpt>
					<trkpt lat="46.246550" lon="6.236100">
						<ele>438</ele>
						<time>2025-12-16T08:48:51Z</time>
					</trkpt>
					<trkpt lat="46.246430" lon="6.236580">
						<ele>438</ele>
						<time>2025-12-16T08:49:03Z</time>
					</trkpt>
					<trkpt lat="46.246350" lon="6.237560">
						<ele>435</ele>
						<time>2025-12-16T08:49:25Z</time>
					</trkpt>
					<trkpt lat="46.245790" lon="6.238610">
						<ele>431</ele>
						<time>2025-12-16T08:49:56Z</time>
					</trkpt>
					<trkpt lat="46.245480" lon="6.239090">
						<ele>432</ele>
						<time>2025-12-16T08:50:11Z</time>
					</trkpt>
					<trkpt lat="46.244430" lon="6.240530">
						<ele>434</ele>
						<time>2025-12-16T08:50:59Z</time>
					</trkpt>
					<trkpt lat="46.244070" lon="6.241140">
						<ele>434</ele>
						<time>2025-12-16T08:51:18Z</time>
					</trkpt>
					<trkpt lat="46.243550" lon="6.242170">
						<ele>434</ele>
						<time>2025-12-16T08:51:47Z</time>
					</trkpt>
					<trkpt lat="46.242540" lon="6.243380">
						<ele>435</ele>
						<time>2025-12-16T08:52:31Z</time>
					</trkpt>
					<trkpt lat="46.242440" lon="6.243690">
						<ele>436</ele>
						<time>2025-12-16T08:52:39Z</time>
					</trkpt>
					<trkpt lat="46.242140" lon="6.245160">
						<ele>440</ele>
						<time>2025-12-16T08:53:14Z</time>
					</trkpt>
					<trkpt lat="46.241900" lon="6.245460">
						<ele>440</ele>
						<time>2025-12-16T08:53:25Z</time>
					</trkpt>
					<trkpt lat="46.241440" lon="6.245820">
						<ele>441</ele>
						<time>2025-12-16T08:53:42Z</time>
					</trkpt>
					<trkpt lat="46.241320" lon="6.245800">
						<ele>441</ele>
						<time>2025-12-16T08:53:46Z</time>
					</trkpt>
					<trkpt lat="46.240070" lon="6.244470">
						<ele>442</ele>
						<time>2025-12-16T08:54:38Z</time>
					</trkpt>
					<trkpt lat="46.239830" lon="6.244270">
						<ele>442</ele>
						<time>2025-12-16T08:54:47Z</time>
					</trkpt>
					<trkpt lat="46.239620" lon="6.244170">
						<ele>442</ele>
						<time>2025-12-16T08:54:55Z</time>
					</trkpt>
					<trkpt lat="46.239500" lon="6.244260">
						<ele>442</ele>
						<time>2025-12-16T08:54:59Z</time>
					</trkpt>
					<trkpt lat="46.239340" lon="6.245020">
						<ele>443</ele>
						<time>2025-12-16T08:55:18Z</time>
					</trkpt>
					<trkpt lat="46.239360" lon="6.245930">
						<ele>445</ele>
						<time>2025-12-16T08:55:39Z</time>
					</trkpt>
					<trkpt lat="46.239500" lon="6.247240">
						<ele>448</ele>
						<time>2025-12-16T08:56:09Z</time>
					</trkpt>
					<trkpt lat="46.239490" lon="6.247770">
						<ele>449</ele>
						<time>2025-12-16T08:56:21Z</time>
					</trkpt>
					<trkpt lat="46.239410" lon="6.248330">
						<ele>451</ele>
						<time>2025-12-16T08:56:35Z</time>
					</trkpt>
					<trkpt lat="46.238480" lon="6.251880">
						<ele>456</ele>
						<time>2025-12-16T08:58:02Z</time>
					</trkpt>
					<trkpt lat="46.238050" lon="6.253070">
						<ele>457</ele>
						<time>2025-12-16T08:58:33Z</time>
					</trkpt>
					<trkpt lat="46.237980" lon="6.253110">
						<ele>457</ele>
						<time>2025-12-16T08:58:36Z</time>
					</trkpt>
					<trkpt lat="46.236370" lon="6.252270">
						<ele>455</ele>
						<time>2025-12-16T08:59:33Z</time>
					</trkpt>
					<trkpt lat="46.234850" lon="6.251390">
						<ele>449</ele>
						<time>2025-12-16T09:00:27Z</time>
					</trkpt>
					<trkpt lat="46.234170" lon="6.251020">
						<ele>446</ele>
						<time>2025-12-16T09:00:52Z</time>
					</trkpt>
					<trkpt lat="46.233890" lon="6.251020">
						<ele>445</ele>
						<time>2025-12-16T09:01:01Z</time>
					</trkpt>
					<trkpt lat="46.233650" lon="6.250790">
						<ele>444</ele>
						<time>2025-12-16T09:01:11Z</time>
					</trkpt>
					<trkpt lat="46.232260" lon="6.250010">
						<ele>444</ele>
						<time>2025-12-16T09:02:00Z</time>
					</trkpt>
					<trkpt lat="46.231280" lon="6.249420">
						<ele>441</ele>
						<time>2025-12-16T09:02:36Z</time>
					</trkpt>
					<trkpt lat="46.229470" lon="6.248100">
						<ele>442</ele>
						<time>2025-12-16T09:03:43Z</time>
					</trkpt>
					<trkpt lat="46.228810" lon="6.247720">
						<ele>442</ele>
						<time>2025-12-16T09:04:07Z</time>
					</trkpt>
					<trkpt lat="46.228010" lon="6.247250">
						<ele>441</ele>
						<time>2025-12-16T09:04:36Z</time>
					</trkpt>
					<trkpt lat="46.227150" lon="6.246780">
						<ele>440</ele>
						<time>2025-12-16T09:05:07Z</time>
					</trkpt>
					<trkpt lat="46.226830" lon="6.247210">
						<ele>440</ele>
						<time>2025-12-16T09:05:21Z</time>
					</trkpt>
					<trkpt lat="46.226350" lon="6.248330">
						<ele>443</ele>
						<time>2025-12-16T09:05:52Z</time>
					</trkpt>
					<trkpt lat="46.226020" lon="6.248810">
						<ele>445</ele>
						<time>2025-12-16T09:06:07Z</time>
					</trkpt>
					<trkpt lat="46.225270" lon="6.249370">
						<ele>445</ele>
						<time>2025-12-16T09:06:35Z</time>
					</trkpt>
					<trkpt lat="46.222300" lon="6.251330">
						<ele>447</ele>
						<time>2025-12-16T09:08:24Z</time>
					</trkpt>
					<trkpt lat="46.221860" lon="6.251560">
						<ele>447</ele>
						<time>2025-12-16T09:08:40Z</time>
					</trkpt>
					<trkpt lat="46.219840" lon="6.251210">
						<ele>449</ele>
						<time>2025-12-16T09:09:48Z</time>
					</trkpt>
					<trkpt lat="46.219730" lon="6.251160">
						<ele>449</ele>
						<time>2025-12-16T09:09:52Z</time>
					</trkpt>
					<trkpt lat="46.219680" lon="6.251050">
						<ele>449</ele>
						<time>2025-12-16T09:09:55Z</time>
					</trkpt>
					<trkpt lat="46.219640" lon="6.250880">
						<ele>449</ele>
						<time>2025-12-16T09:09:59Z</time>
					</trkpt>
					<trkpt lat="46.219600" lon="6.250810">
						<ele>449</ele>
						<time>2025-12-16T09:10:01Z</time>
					</trkpt>
					<trkpt lat="46.219380" lon="6.250610">
						<ele>447</ele>
						<time>2025-12-16T09:10:10Z</time>
					</trkpt>
					<trkpt lat="46.219210" lon="6.250550">
						<ele>446</ele>
						<time>2025-12-16T09:10:15Z</time>
					</trkpt>
					<trkpt lat="46.218470" lon="6.250350">
						<ele>446</ele>
						<time>2025-12-16T09:10:41Z</time>
					</trkpt>
					<trkpt lat="46.217970" lon="6.250110">
						<ele>447</ele>
						<time>2025-12-16T09:10:58Z</time>
					</trkpt>
					<trkpt lat="46.217900" lon="6.250000">
						<ele>447</ele>
						<time>2025-12-16T09:11:02Z</time>
					</trkpt>
					<trkpt lat="46.217840" lon="6.249770">
						<ele>446</ele>
						<time>2025-12-16T09:11:07Z</time>
					</trkpt>
					<trkpt lat="46.217810" lon="6.249570">
						<ele>445</ele>
						<time>2025-12-16T09:11:12Z</time>
					</trkpt>
					<trkpt lat="46.216830" lon="6.248940">
						<ele>443</ele>
						<time>2025-12-16T09:11:48Z</time>
					</trkpt>
					<trkpt lat="46.215800" lon="6.248340">
						<ele>440</ele>
						<time>2025-12-16T09:12:25Z</time>
					</trkpt>
					<trkpt lat="46.215690" lon="6.248200">
						<ele>440</ele>
						<time>2025-12-16T09:12:30Z</time>
					</trkpt>
					<trkpt lat="46.215670" lon="6.247810">
						<ele>440</ele>
						<time>2025-12-16T09:12:39Z</time>
					</trkpt>
					<trkpt lat="46.215550" lon="6.247610">
						<ele>440</ele>
						<time>2025-12-16T09:12:45Z</time>
					</trkpt>
					<trkpt lat="46.212810" lon="6.245630">
						<ele>440</ele>
						<time>2025-12-16T09:14:27Z</time>
					</trkpt>
					<trkpt lat="46.212610" lon="6.245460">
						<ele>440</ele>
						<time>2025-12-16T09:14:35Z</time>
					</trkpt>
					<trkpt lat="46.212440" lon="6.245250">
						<ele>440</ele>
						<time>2025-12-16T09:14:42Z</time>
					</trkpt>
					<trkpt lat="46.209860" lon="6.241360">
						<ele>439</ele>
						<time>2025-12-16T09:16:47Z</time>
					</trkpt>
					<trkpt lat="46.209720" lon="6.241230">
						<ele>438</ele>
						<time>2025-12-16T09:16:52Z</time>
					</trkpt>
					<trkpt lat="46.209610" lon="6.241180">
						<ele>438</ele>
						<time>2025-12-16T09:16:56Z</time>
					</trkpt>
					<trkpt lat="46.208820" lon="6.241070">
						<ele>438</ele>
						<time>2025-12-16T09:17:22Z</time>
					</trkpt>
					<trkpt lat="46.208610" lon="6.240950">
						<ele>438</ele>
						<time>2025-12-16T09:17:30Z</time>
					</trkpt>
					<trkpt lat="46.208480" lon="6.240780">
						<ele>438</ele>
						<time>2025-12-16T09:17:36Z</time>
					</trkpt>
					<trkpt lat="46.208390" lon="6.240570">
						<ele>438</ele>
						<time>2025-12-16T09:17:42Z</time>
					</trkpt>
					<trkpt lat="46.208350" lon="6.240320">
						<ele>437</ele>
						<time>2025-12-16T09:17:47Z</time>
					</trkpt>
					<trkpt lat="46.208340" lon="6.240060">
						<ele>437</ele>
						<time>2025-12-16T09:17:53Z</time>
					</trkpt>
					<trkpt lat="46.208400" lon="6.239740">
						<ele>436</ele>
						<time>2025-12-16T09:18:01Z</time>
					</trkpt>
					<trkpt lat="46.208950" lon="6.238240">
						<ele>435</ele>
						<time>2025-12-16T09:18:40Z</time>
					</trkpt>
					<trkpt lat="46.209950" lon="6.236200">
						<ele>433</ele>
						<time>2025-12-16T09:19:38Z</time>
					</trkpt>
					<trkpt lat="46.210940" lon="6.233420">
						<ele>431</ele>
						<time>2025-12-16T09:20:50Z</time>
					</trkpt>
					<trkpt lat="46.211160" lon="6.232730">
						<ele>432</ele>
						<time>2025-12-16T09:21:08Z</time>
					</trkpt>
					<trkpt lat="46.211200" lon="6.232480">
						<ele>432</ele>
						<time>2025-12-16T09:21:14Z</time>
					</trkpt>
					<trkpt lat="46.211160" lon="6.232360">
						<ele>432</ele>
						<time>2025-12-16T09:21:17Z</time>
					</trkpt>
					<trkpt lat="46.210640" lon="6.231800">
						<ele>430</ele>
						<time>2025-12-16T09:21:38Z</time>
					</trkpt>
					<trkpt lat="46.210610" lon="6.231690">
						<ele>430</ele>
						<time>2025-12-16T09:21:41Z</time>
					</trkpt>
					<trkpt lat="46.210650" lon="6.231520">
						<ele>430</ele>
						<time>2025-12-16T09:21:45Z</time>
					</trkpt>
					<trkpt lat="46.211590" lon="6.228840">
						<ele>430</ele>
						<time>2025-12-16T09:22:55Z</time>
					</trkpt>
					<trkpt lat="46.212480" lon="6.229720">
						<ele>430</ele>
						<time>2025-12-16T09:23:31Z</time>
					</trkpt>
					<trkpt lat="46.212540" lon="6.229570">
						<ele>429</ele>
						<time>2025-12-16T09:23:35Z</time>
					</trkpt>
					<trkpt lat="46.211050" lon="6.228110">
						<ele>429</ele>
						<time>2025-12-16T09:24:35Z</time>
					</trkpt>
					<trkpt lat="46.210600" lon="6.227740">
						<ele>429</ele>
						<time>2025-12-16T09:24:52Z</time>
					</trkpt>
					<trkpt lat="46.209700" lon="6.227130">
						<ele>428</ele>
						<time>2025-12-16T09:25:25Z</time>
					</trkpt>
					<trkpt lat="46.206710" lon="6.225800">
						<ele>428</ele>
						<time>2025-12-16T09:27:09Z</time>
					</trkpt>
					<trkpt lat="46.206390" lon="6.225620">
						<ele>428</ele>
						<time>2025-12-16T09:27:21Z</time>
					</trkpt>
					<trkpt lat="46.205690" lon="6.225150">
						<ele>428</ele>
						<time>2025-12-16T09:27:47Z</time>
					</trkpt>
					<trkpt lat="46.205090" lon="6.224650">
						<ele>427</ele>
						<time>2025-12-16T09:28:10Z</time>
					</trkpt>
					<trkpt lat="46.204630" lon="6.224120">
						<ele>427</ele>
						<time>2025-12-16T09:28:29Z</time>
					</trkpt>
					<trkpt lat="46.204210" lon="6.223460">
						<ele>427</ele>
						<time>2025-12-16T09:28:50Z</time>
					</trkpt>
					<trkpt lat="46.203970" lon="6.222760">
						<ele>429</ele>
						<time>2025-12-16T09:29:08Z</time>
					</trkpt>
					<trkpt lat="46.204080" lon="6.222610">
						<ele>429</ele>
						<time>2025-12-16T09:29:13Z</time>
					</trkpt>
					<trkpt lat="46.205060" lon="6.221860">
						<ele>429</ele>
						<time>2025-12-16T09:29:50Z</time>
					</trkpt>
					<trkpt lat="46.205350" lon="6.221540">
						<ele>428</ele>
						<time>2025-12-16T09:30:02Z</time>
					</trkpt>
					<trkpt lat="46.205780" lon="6.220980">
						<ele>428</ele>
						<time>2025-12-16T09:30:22Z</time>
					</trkpt>
					<trkpt lat="46.206030" lon="6.220500">
						<ele>428</ele>
						<time>2025-12-16T09:30:36Z</time>
					</trkpt>
					<trkpt lat="46.206930" lon="6.219310">
						<ele>429</ele>
						<time>2025-12-16T09:31:16Z</time>
					</trkpt>
					<trkpt lat="46.206820" lon="6.218980">
						<ele>430</ele>
						<time>2025-12-16T09:31:25Z</time>
					</trkpt>
					<trkpt lat="46.202440" lon="6.210870">
						<ele>427</ele>
						<time>2025-12-16T09:35:22Z</time>
					</trkpt>
					<trkpt lat="46.202210" lon="6.210670">
						<ele>427</ele>
						<time>2025-12-16T09:35:31Z</time>
					</trkpt>
					<trkpt lat="46.201700" lon="6.209660">
						<ele>426</ele>
						<time>2025-12-16T09:36:00Z</time>
					</trkpt>
					<trkpt lat="46.201510" lon="6.209500">
						<ele>427</ele>
						<time>2025-12-16T09:36:07Z</time>
					</trkpt>
					<trkpt lat="46.200690" lon="6.209920">
						<ele>427</ele>
						<time>2025-12-16T09:36:36Z</time>
					</trkpt>
					<trkpt lat="46.199870" lon="6.210090">
						<ele>427</ele>
						<time>2025-12-16T09:37:04Z</time>
					</trkpt>
					<trkpt lat="46.199460" lon="6.210240">
						<ele>426</ele>
						<time>2025-12-16T09:37:18Z</time>
					</trkpt>
					<trkpt lat="46.198200" lon="6.211330">
						<ele>425</ele>
						<time>2025-12-16T09:38:07Z</time>
					</trkpt>
					<trkpt lat="46.196930" lon="6.207730">
						<ele>423</ele>
						<time>2025-12-16T09:39:40Z</time>
					</trkpt>
					<trkpt lat="46.197110" lon="6.207250">
						<ele>424</ele>
						<time>2025-12-16T09:39:53Z</time>
					</trkpt>
					<trkpt lat="46.197230" lon="6.206120">
						<ele>425</ele>
						<time>2025-12-16T09:40:19Z</time>
					</trkpt>
					<trkpt lat="46.197290" lon="6.204270">
						<ele>424</ele>
						<time>2025-12-16T09:41:02Z</time>
					</trkpt>
					<trkpt lat="46.197390" lon="6.202450">
						<ele>423</ele>
						<time>2025-12-16T09:41:44Z</time>
					</trkpt>
					<trkpt lat="46.197420" lon="6.200560">
						<ele>421</ele>
						<time>2025-12-16T09:42:28Z</time>
					</trkpt>
					<trkpt lat="46.196520" lon="6.199990">
						<ele>421</ele>
						<time>2025-12-16T09:43:01Z</time>
					</trkpt>
					<trkpt lat="46.195740" lon="6.199330">
						<ele>422</ele>
						<time>2025-12-16T09:43:31Z</time>
					</trkpt>
					<trkpt lat="46.195610" lon="6.199090">
						<ele>423</ele>
						<time>2025-12-16T09:43:38Z</time>
					</trkpt>
					<trkpt lat="46.195060" lon="6.197250">
						<ele>424</ele>
						<time>2025-12-16T09:44:24Z</time>
					</trkpt>
					<trkpt lat="46.195060" lon="6.197070">
						<ele>424</ele>
						<time>2025-12-16T09:44:28Z</time>
					</trkpt>
					<trkpt lat="46.196010" lon="6.195900">
						<ele>422</ele>
						<time>2025-12-16T09:45:10Z</time>
					</trkpt>
					<trkpt lat="46.196350" lon="6.195560">
						<ele>421</ele>
						<time>2025-12-16T09:45:24Z</time>
					</trkpt>
					<trkpt lat="46.196530" lon="6.195250">
						<ele>421</ele>
						<time>2025-12-16T09:45:33Z</time>
					</trkpt>
					<trkpt lat="46.196600" lon="6.195010">
						<ele>421</ele>
						<time>2025-12-16T09:45:39Z</time>
					</trkpt>
					<trkpt lat="46.196720" lon="6.194160">
						<ele>422</ele>
						<time>2025-12-16T09:45:59Z</time>
					</trkpt>
					<trkpt lat="46.196790" lon="6.194110">
						<ele>422</ele>
						<time>2025-12-16T09:46:02Z</time>
					</trkpt>
					<trkpt lat="46.197310" lon="6.194530">
						<ele>422</ele>
						<time>2025-12-16T09:46:22Z</time>
					</trkpt>
					<trkpt lat="46.199450" lon="6.196570">
						<ele>421</ele>
						<time>2025-12-16T09:47:47Z</time>
					</trkpt>
					<trkpt lat="46.199740" lon="6.196930">
						<ele>421</ele>
						<time>2025-12-16T09:48:00Z</time>
					</trkpt>
					<trkpt lat="46.203540" lon="6.203240">
						<ele>427</ele>
						<time>2025-12-16T09:51:13Z</time>
					</trkpt>
					<trkpt lat="46.203770" lon="6.203310">
						<ele>427</ele>
						<time>2025-12-16T09:51:21Z</time>
					</trkpt>
					<trkpt lat="46.205140" lon="6.202940">
						<ele>423</ele>
						<time>2025-12-16T09:52:08Z</time>
					</trkpt>
					<trkpt lat="46.206270" lon="6.202610">
						<ele>423</ele>
						<time>2025-12-16T09:52:46Z</time>
					</trkpt>
					<trkpt lat="46.206490" lon="6.202430">
						<ele>424</ele>
						<time>2025-12-16T09:52:54Z</time>
					</trkpt>
					<trkpt lat="46.206700" lon="6.202170">
						<ele>425</ele>
						<time>2025-12-16T09:53:04Z</time>
					</trkpt>
					<trkpt lat="46.206800" lon="6.201770">
						<ele>426</ele>
						<time>2025-12-16T09:53:14Z</time>
					</trkpt>
					<trkpt lat="46.206830" lon="6.200820">
						<ele>424</ele>
						<time>2025-12-16T09:53:35Z</time>
					</trkpt>
					<trkpt lat="46.206890" lon="6.200660">
						<ele>425</ele>
						<time>2025-12-16T09:53:40Z</time>
					</trkpt>
					<trkpt lat="46.207040" lon="6.200680">
						<ele>425</ele>
						<time>2025-12-16T09:53:45Z</time>
					</trkpt>
					<trkpt lat="46.208060" lon="6.200950">
						<ele>425</ele>
						<time>2025-12-16T09:54:19Z</time>
					</trkpt>
					<trkpt lat="46.208760" lon="6.201290">
						<ele>425</ele>
						<time>2025-12-16T09:54:44Z</time>
					</trkpt>
					<trkpt lat="46.209290" lon="6.201740">
						<ele>425</ele>
						<time>2025-12-16T09:55:04Z</time>
					</trkpt>
					<trkpt lat="46.209660" lon="6.202210">
						<ele>425</ele>
						<time>2025-12-16T09:55:21Z</time>
					</trkpt>
					<trkpt lat="46.209970" lon="6.202740">
						<ele>425</ele>
						<time>2025-12-16T09:55:37Z</time>
					</trkpt>
					<trkpt lat="46.210270" lon="6.203480">
						<ele>426</ele>
						<time>2025-12-16T09:55:57Z</time>
					</trkpt>
					<trkpt lat="46.210460" lon="6.204240">
						<ele>427</ele>
						<time>2025-12-16T09:56:15Z</time>
					</trkpt>
					<trkpt lat="46.210720" lon="6.205870">
						<ele>427</ele>
						<time>2025-12-16T09:56:54Z</time>
					</trkpt>
					<trkpt lat="46.211230" lon="6.207460">
						<ele>427</ele>
						<time>2025-12-16T09:57:34Z</time>
					</trkpt>
					<trkpt lat="46.211340" lon="6.207970">
						<ele>427</ele>
						<time>2025-12-16T09:57:47Z</time>
					</trkpt>
					<trkpt lat="46.211510" lon="6.209340">
						<ele>426</ele>
						<time>2025-12-16T09:58:19Z</time>
					</trkpt>
					<trkpt lat="46.211590" lon="6.209840">
						<ele>426</ele>
						<time>2025-12-16T09:58:31Z</time>
					</trkpt>
					<trkpt lat="46.211760" lon="6.210330">
						<ele>426</ele>
						<time>2025-12-16T09:58:43Z</time>
					</trkpt>
					<trkpt lat="46.212550" lon="6.211680">
						<ele>427</ele>
						<time>2025-12-16T09:59:24Z</time>
					</trkpt>
					<trkpt lat="46.212630" lon="6.211840">
						<ele>426</ele>
						<time>2025-12-16T09:59:29Z</time>
					</trkpt>
					<trkpt lat="46.213490" lon="6.214340">
						<ele>427</ele>
						<time>2025-12-16T10:00:33Z</time>
					</trkpt>
					<trkpt lat="46.213940" lon="6.215260">
						<ele>429</ele>
						<time>2025-12-16T10:00:59Z</time>
					</trkpt>
					<trkpt lat="46.213950" lon="6.215450">
						<ele>429</ele>
						<time>2025-12-16T10:01:04Z</time>
					</trkpt>
					<trkpt lat="46.213430" lon="6.216050">
						<ele>428</ele>
						<time>2025-12-16T10:01:26Z</time>
					</trkpt>
					<trkpt lat="46.213120" lon="6.216350">
						<ele>429</ele>
						<time>2025-12-16T10:01:38Z</time>
					</trkpt>
					<trkpt lat="46.212540" lon="6.216780">
						<ele>432</ele>
						<time>2025-12-16T10:02:00Z</time>
					</trkpt>
					<trkpt lat="46.212590" lon="6.217030">
						<ele>432</ele>
						<time>2025-12-16T10:02:06Z</time>
					</trkpt>
					<trkpt lat="46.213920" lon="6.218690">
						<ele>430</ele>
						<time>2025-12-16T10:03:05Z</time>
					</trkpt>
					<trkpt lat="46.214440" lon="6.219150">
						<ele>430</ele>
						<time>2025-12-16T10:03:25Z</time>
					</trkpt>
					<trkpt lat="46.215210" lon="6.219580">
						<ele>431</ele>
						<time>2025-12-16T10:03:53Z</time>
					</trkpt>
					<trkpt lat="46.215600" lon="6.219660">
						<ele>430</ele>
						<time>2025-12-16T10:04:06Z</time>
					</trkpt>
					<trkpt lat="46.216250" lon="6.219590">
						<ele>430</ele>
						<time>2025-12-16T10:04:27Z</time>
					</trkpt>
					<trkpt lat="46.216640" lon="6.219590">
						<ele>430</ele>
						<time>2025-12-16T10:04:40Z</time>
					</trkpt>
					<trkpt lat="46.217080" lon="6.219710">
						<ele>430</ele>
						<time>2025-12-16T10:04:55Z</time>
					</trkpt>
					<trkpt lat="46.217600" lon="6.219920">
						<ele>431</ele>
						<time>2025-12-16T10:05:13Z</time>
					</trkpt>
					<trkpt lat="46.218220" lon="6.220070">
						<ele>429</ele>
						<time>2025-12-16T10:05:34Z</time>
					</trkpt>
					<trkpt lat="46.218370" lon="6.220420">
						<ele>429</ele>
						<time>2025-12-16T10:05:44Z</time>
					</trkpt>
					<trkpt lat="46.219000" lon="6.221340">
						<ele>430</ele>
						<time>2025-12-16T10:06:14Z</time>
					</trkpt>
					<trkpt lat="46.219120" lon="6.221560">
						<ele>430</ele>
						<time>2025-12-16T10:06:20Z</time>
					</trkpt>
					<trkpt lat="46.219210" lon="6.221870">
						<ele>430</ele>
						<time>2025-12-16T10:06:28Z</time>
					</trkpt>
					<trkpt lat="46.219470" lon="6.223590">
						<ele>432</ele>
						<time>2025-12-16T10:07:09Z</time>
					</trkpt>
					<trkpt lat="46.219540" lon="6.223770">
						<ele>432</ele>
						<time>2025-12-16T10:07:13Z</time>
					</trkpt>
					<trkpt lat="46.219690" lon="6.223980">
						<ele>432</ele>
						<time>2025-12-16T10:07:20Z</time>
					</trkpt>
					<trkpt lat="46.219970" lon="6.224180">
						<ele>432</ele>
						<time>2025-12-16T10:07:31Z</time>
					</trkpt>
					<trkpt lat="46.220680" lon="6.224760">
						<ele>430</ele>
						<time>2025-12-16T10:07:58Z</time>
					</trkpt>
					<trkpt lat="46.220440" lon="6.225200">
						<ele>429</ele>
						<time>2025-12-16T10:08:11Z</time>
					</trkpt>
					<trkpt lat="46.220280" lon="6.225530">
						<ele>428</ele>
						<time>2025-12-16T10:08:20Z</time>
					</trkpt>
					<trkpt lat="46.220250" lon="6.225680">
						<ele>428</ele>
						<time>2025-12-16T10:08:24Z</time>
					</trkpt>
					<trkpt lat="46.220870" lon="6.226590">
						<ele>428</ele>
						<time>2025-12-16T10:08:53Z</time>
					</trkpt>
					<trkpt lat="46.221890" lon="6.227740">
						<ele>428</ele>
						<time>2025-12-16T10:09:36Z</time>
					</trkpt>
					<trkpt lat="46.222380" lon="6.228490">
						<ele>429</ele>
						<time>2025-12-16T10:10:00Z</time>
					</trkpt>
					<trkpt lat="46.223710" lon="6.231670">
						<ele>428</ele>
						<time>2025-12-16T10:11:26Z</time>
					</trkpt>
					<trkpt lat="46.224090" lon="6.232360">
						<ele>429</ele>
						<time>2025-12-16T10:11:46Z</time>
					</trkpt>
					<trkpt lat="46.224160" lon="6.232390">
						<ele>429</ele>
						<time>2025-12-16T10:11:49Z</time>
					</trkpt>
					<trkpt lat="46.224330" lon="6.232230">
						<ele>429</ele>
						<time>2025-12-16T10:11:56Z</time>
					</trkpt>
					<trkpt lat="46.224450" lon="6.232270">
						<ele>429</ele>
						<time>2025-12-16T10:12:00Z</time>
					</trkpt>
					<trkpt lat="46.225120" lon="6.232840">
						<ele>430</ele>
						<time>2025-12-16T10:12:26Z</time>
					</trkpt>
					<trkpt lat="46.225220" lon="6.232910">
						<ele>429</ele>
						<time>2025-12-16T10:12:29Z</time>
					</trkpt>
					<trkpt lat="46.225310" lon="6.232920">
						<ele>429</ele>
						<time>2025-12-16T10:12:32Z</time>
					</trkpt>
					<trkpt lat="46.225400" lon="6.232850">
						<ele>429</ele>
						<time>2025-12-16T10:12:36Z</time>
					</trkpt>
					<trkpt lat="46.225490" lon="6.232650">
						<ele>429</ele>
						<time>2025-12-16T10:12:41Z</time>
					</trkpt>
					<trkpt lat="46.225700" lon="6.231950">
						<ele>428</ele>
						<time>2025-12-16T10:12:59Z</time>
					</trkpt>
					<trkpt lat="46.226250" lon="6.230540">
						<ele>431</ele>
						<time>2025-12-16T10:13:36Z</time>
					</trkpt>
					<trkpt lat="46.226460" lon="6.229730">
						<ele>432</ele>
						<time>2025-12-16T10:13:56Z</time>
					</trkpt>
					<trkpt lat="46.226540" lon="6.229230">
						<ele>433</ele>
						<time>2025-12-16T10:14:08Z</time>
					</trkpt>
					<trkpt lat="46.226660" lon="6.228750">
						<ele>433</ele>
						<time>2025-12-16T10:14:20Z</time>
					</trkpt>
					<trkpt lat="46.226830" lon="6.228240">
						<ele>434</ele>
						<time>2025-12-16T10:14:33Z</time>
					</trkpt>
					<trkpt lat="46.227460" lon="6.228570">
						<ele>437</ele>
						<time>2025-12-16T10:14:55Z</time>
					</trkpt>
					<trkpt lat="46.227880" lon="6.228950">
						<ele>438</ele>
						<time>2025-12-16T10:15:12Z</time>
					</trkpt>
					<trkpt lat="46.229030" lon="6.230330">
						<ele>436</ele>
						<time>2025-12-16T10:16:02Z</time>
					</trkpt>
					<trkpt lat="46.229200" lon="6.230470">
						<ele>436</ele>
						<time>2025-12-16T10:16:08Z</time>
					</trkpt>
					<trkpt lat="46.229370" lon="6.230550">
						<ele>436</ele>
						<time>2025-12-16T10:16:14Z</time>
					</trkpt>
					<trkpt lat="46.230250" lon="6.230720">
						<ele>436</ele>
						<time>2025-12-16T10:16:44Z</time>
					</trkpt>
					<trkpt lat="46.230930" lon="6.230780">
						<ele>435</ele>
						<time>2025-12-16T10:17:06Z</time>
					</trkpt>
					<trkpt lat="46.231160" lon="6.230760">
						<ele>436</ele>
						<time>2025-12-16T10:17:14Z</time>
					</trkpt>
					<trkpt lat="46.231430" lon="6.230690">
						<ele>437</ele>
						<time>2025-12-16T10:17:23Z</time>
					</trkpt>
					<trkpt lat="46.231840" lon="6.230500">
						<ele>437</ele>
						<time>2025-12-16T10:17:38Z</time>
					</trkpt>
					<trkpt lat="46.234300" lon="6.229460">
						<ele>433</ele>
						<time>2025-12-16T10:19:03Z</time>
					</trkpt>
					<trkpt lat="46.234480" lon="6.229320">
						<ele>433</ele>
						<time>2025-12-16T10:19:10Z</time>
					</trkpt>
					<trkpt lat="46.234740" lon="6.229010">
						<ele>434</ele>
						<time>2025-12-16T10:19:21Z</time>
					</trkpt>
					<trkpt lat="46.235030" lon="6.228540">
						<ele>433</ele>
						<time>2025-12-16T10:19:36Z</time>
					</trkpt>
					<trkpt lat="46.235590" lon="6.227450">
						<ele>430</ele>
						<time>2025-12-16T10:20:07Z</time>
					</trkpt>
					<trkpt lat="46.235670" lon="6.227400">
						<ele>429</ele>
						<time>2025-12-16T10:20:10Z</time>
					</trkpt>
					<trkpt lat="46.235770" lon="6.227430">
						<ele>429</ele>
						<time>2025-12-16T10:20:13Z</time>
					</trkpt>
					<trkpt lat="46.236360" lon="6.227840">
						<ele>428</ele>
						<time>2025-12-16T10:20:35Z</time>
					</trkpt>
					<trkpt lat="46.236870" lon="6.228300">
						<ele>427</ele>
						<time>2025-12-16T10:20:55Z</time>
					</trkpt>
					<trkpt lat="46.236910" lon="6.228300">
						<ele>427</ele>
						<time>2025-12-16T10:20:57Z</time>
					</trkpt>
					<trkpt lat="46.236950" lon="6.228270">
						<ele>427</ele>
						<time>2025-12-16T10:20:58Z</time>
					</trkpt>
					<trkpt lat="46.237180" lon="6.227660">
						<ele>428</ele>
						<time>2025-12-16T10:21:14Z</time>
					</trkpt>
					<trkpt lat="46.238950" lon="6.224090">
						<ele>429</ele>
						<time>2025-12-16T10:22:56Z</time>
					</trkpt>
					<trkpt lat="46.239170" lon="6.223690">
						<ele>430</ele>
						<time>2025-12-16T10:23:07Z</time>
					</trkpt>
					<trkpt lat="46.239460" lon="6.223280">
						<ele>430</ele>
						<time>2025-12-16T10:23:21Z</time>
					</trkpt>
					<trkpt lat="46.239580" lon="6.222860">
						<ele>430</ele>
						<time>2025-12-16T10:23:31Z</time>
					</trkpt>
					<trkpt lat="46.239820" lon="6.221010">
						<ele>430</ele>
						<time>2025-12-16T10:24:15Z</time>
					</trkpt>
					<trkpt lat="46.240030" lon="6.219230">
						<ele>433</ele>
						<time>2025-12-16T10:24:56Z</time>
					</trkpt>
					<trkpt lat="46.240070" lon="6.217550">
						<ele>432</ele>
						<time>2025-12-16T10:25:35Z</time>
					</trkpt>
					<trkpt lat="46.242320" lon="6.211500">
						<ele>433</ele>
						<time>2025-12-16T10:28:14Z</time>
					</trkpt>
					<trkpt lat="46.242310" lon="6.211410">
						<ele>433</ele>
						<time>2025-12-16T10:28:16Z</time>
					</trkpt>
					<trkpt lat="46.239770" lon="6.208820">
						<ele>434</ele>
						<time>2025-12-16T10:30:00Z</time>
					</trkpt>
					<trkpt lat="46.239770" lon="6.208560">
						<ele>435</ele>
						<time>2025-12-16T10:30:06Z</time>
					</trkpt>
					<trkpt lat="46.241190" lon="6.205240">
						<ele>434</ele>
						<time>2025-12-16T10:31:36Z</time>
					</trkpt>
					<trkpt lat="46.241270" lon="6.205190">
						<ele>434</ele>
						<time>2025-12-16T10:31:39Z</time>
					</trkpt>
					<trkpt lat="46.241930" lon="6.206270">
						<ele>434</ele>
						<time>2025-12-16T10:32:12Z</time>
					</trkpt>
					<trkpt lat="46.242420" lon="6.206860">
						<ele>434</ele>
						<time>2025-12-16T10:32:33Z</time>
					</trkpt>
					<trkpt lat="46.243810" lon="6.208380">
						<ele>433</ele>
						<time>2025-12-16T10:33:31Z</time>
					</trkpt>
					<trkpt lat="46.243920" lon="6.208350">
						<ele>433</ele>
						<time>2025-12-16T10:33:35Z</time>
					</trkpt>
					<trkpt lat="46.244830" lon="6.207030">
						<ele>425</ele>
						<time>2025-12-16T10:34:18Z</time>
					</trkpt>
					<trkpt lat="46.245150" lon="6.206480">
						<ele>424</ele>
						<time>2025-12-16T10:34:34Z</time>
					</trkpt>
					<trkpt lat="46.245220" lon="6.206320">
						<ele>423</ele>
						<time>2025-12-16T10:34:39Z</time>
					</trkpt>
					<trkpt lat="46.245230" lon="6.206050">
						<ele>423</ele>
						<time>2025-12-16T10:34:45Z</time>
					</trkpt>
					<trkpt lat="46.245110" lon="6.205720">
						<ele>423</ele>
						<time>2025-12-16T10:34:54Z</time>
					</trkpt>
					<trkpt lat="46.243920" lon="6.204130">
						<ele>424</ele>
						<time>2025-12-16T10:35:48Z</time>
					</trkpt>
					<trkpt lat="46.242790" lon="6.202660">
						<ele>424</ele>
						<time>2025-12-16T10:36:38Z</time>
					</trkpt>
					<trkpt lat="46.241850" lon="6.201270">
						<ele>424</ele>
						<time>2025-12-16T10:37:23Z</time>
					</trkpt>
					<trkpt lat="46.241010" lon="6.200130">
						<ele>420</ele>
						<time>2025-12-16T10:38:02Z</time>
					</trkpt>
					<trkpt lat="46.240150" lon="6.198810">
						<ele>418</ele>
						<time>2025-12-16T10:38:44Z</time>
					</trkpt>
					<trkpt lat="46.239350" lon="6.197490">
						<ele>415</ele>
						<time>2025-12-16T10:39:24Z</time>
					</trkpt>
					<trkpt lat="46.238830" lon="6.196760">
						<ele>412</ele>
						<time>2025-12-16T10:39:48Z</time>
					</trkpt>
					<trkpt lat="46.238390" lon="6.196240">
						<ele>409</ele>
						<time>2025-12-16T10:40:07Z</time>
					</trkpt>
					<trkpt lat="46.238130" lon="6.196000">
						<ele>409</ele>
						<time>2025-12-16T10:40:18Z</time>
					</trkpt>
					<trkpt lat="46.235920" lon="6.194460">
						<ele>399</ele>
						<time>2025-12-16T10:41:39Z</time>
					</trkpt>
					<trkpt lat="46.235270" lon="6.193920">
						<ele>395</ele>
						<time>2025-12-16T10:42:04Z</time>
					</trkpt>
					<trkpt lat="46.234810" lon="6.193490">
						<ele>392</ele>
						<time>2025-12-16T10:42:23Z</time>
					</trkpt>
					<trkpt lat="46.234190" lon="6.192650">
						<ele>389</ele>
						<time>2025-12-16T10:42:51Z</time>
					</trkpt>
					<trkpt lat="46.233520" lon="6.191690">
						<ele>386</ele>
						<time>2025-12-16T10:43:22Z</time>
					</trkpt>
					<trkpt lat="46.232930" lon="6.190790">
						<ele>382</ele>
						<time>2025-12-16T10:43:51Z</time>
					</trkpt>
					<trkpt lat="46.232410" lon="6.190060">
						<ele>380</ele>
						<time>2025-12-16T10:44:15Z</time>
					</trkpt>
					<trkpt lat="46.232220" lon="6.189830">
						<ele>380</ele>
						<time>2025-12-16T10:44:24Z</time>
					</trkpt>
					<trkpt lat="46.231230" lon="6.188950">
						<ele>376</ele>
						<time>2025-12-16T10:45:02Z</time>
					</trkpt>
					<trkpt lat="46.230070" lon="6.187960">
						<ele>376</ele>
						<time>2025-12-16T10:45:47Z</time>
					</trkpt>
					<trkpt lat="46.228720" lon="6.186720">
						<ele>376</ele>
						<time>2025-12-16T10:46:41Z</time>
					</trkpt>
					<trkpt lat="46.228260" lon="6.186250">
						<ele>376</ele>
						<time>2025-12-16T10:46:59Z</time>
					</trkpt>
					<trkpt lat="46.227690" lon="6.185570">
						<ele>376</ele>
						<time>2025-12-16T10:47:24Z</time>
					</trkpt>
					<trkpt lat="46.227060" lon="6.184750">
						<ele>380</ele>
						<time>2025-12-16T10:47:52Z</time>
					</trkpt>
					<trkpt lat="46.226770" lon="6.184440">
						<ele>379</ele>
						<time>2025-12-16T10:48:04Z</time>
					</trkpt>
					<trkpt lat="46.226240" lon="6.184000">
						<ele>377</ele>
						<time>2025-12-16T10:48:25Z</time>
					</trkpt>
					<trkpt lat="46.220920" lon="6.179960">
						<ele>382</ele>
						<time>2025-12-16T10:51:45Z</time>
					</trkpt>
					<trkpt lat="46.213200" lon="6.174360">
						<ele>379</ele>
						<time>2025-12-16T10:56:33Z</time>
					</trkpt>
					<trkpt lat="46.212850" lon="6.174040">
						<ele>378</ele>
						<time>2025-12-16T10:56:47Z</time>
					</trkpt>
					<trkpt lat="46.212570" lon="6.173750">
						<ele>377</ele>
						<time>2025-12-16T10:56:59Z</time>
					</trkpt>
					<trkpt lat="46.212130" lon="6.173120">
						<ele>377</ele>
						<time>2025-12-16T10:57:19Z</time>
					</trkpt>
					<trkpt lat="46.211830" lon="6.172500">
						<ele>376</ele>
						<time>2025-12-16T10:57:37Z</time>
					</trkpt>
					<trkpt lat="46.209630" lon="6.167670">
						<ele>375</ele>
						<time>2025-12-16T10:59:50Z</time>
					</trkpt>
					<trkpt lat="46.208580" lon="6.165270">
						<ele>376</ele>
						<time>2025-12-16T11:00:56Z</time>
					</trkpt>
					<trkpt lat="46.208300" lon="6.164570">
						<ele>377</ele>
						<time>2025-12-16T11:01:15Z</time>
					</trkpt>
					<trkpt lat="46.207580" lon="6.162060">
						<ele>376</ele>
						<time>2025-12-16T11:02:17Z</time>
					</trkpt>
					<trkpt lat="46.207420" lon="6.161660">
						<ele>375</ele>
						<time>2025-12-16T11:02:28Z</time>
					</trkpt>
					<trkpt lat="46.206240" lon="6.159140">
						<ele>379</ele>
						<time>2025-12-16T11:03:38Z</time>
					</trkpt>
					<trkpt lat="46.204280" lon="6.155070">
						<ele>377</ele>
						<time>2025-12-16T11:05:33Z</time>
					</trkpt>
					<trkpt lat="46.203480" lon="6.155320">
						<ele>382</ele>
						<time>2025-12-16T11:06:00Z</time>
					</trkpt>
					<trkpt lat="46.203180" lon="6.155390">
						<ele>383</ele>
						<time>2025-12-16T11:06:10Z</time>
					</trkpt>
					<trkpt lat="46.202590" lon="6.155110">
						<ele>382</ele>
						<time>2025-12-16T11:06:31Z</time>
					</trkpt>
					<trkpt lat="46.203560" lon="6.150450">
						<ele>383</ele>
						<time>2025-12-16T11:08:23Z</time>
					</trkpt>
					<trkpt lat="46.204350" lon="6.146780">
						<ele>385</ele>
						<time>2025-12-16T11:09:52Z</time>
					</trkpt>
					<trkpt lat="46.204420" lon="6.146690">
						<ele>385</ele>
						<time>2025-12-16T11:09:55Z</time>
					</trkpt>
					<trkpt lat="46.204650" lon="6.146700">
						<ele>382</ele>
						<time>2025-12-16T11:10:03Z</time>
					</trkpt>
					<trkpt lat="46.204840" lon="6.146600">
						<ele>381</ele>
						<time>2025-12-16T11:10:10Z</time>
					</trkpt>
					<trkpt lat="46.205860" lon="6.146990">
						<ele>375</ele>
						<time>2025-12-16T11:10:45Z</time>
					</trkpt>
					<trkpt lat="46.205930" lon="6.146970">
						<ele>375</ele>
						<time>2025-12-16T11:10:47Z</time>
					</trkpt>
					<trkpt lat="46.206610" lon="6.146600">
						<ele>380</ele>
						<time>2025-12-16T11:11:11Z</time>
					</trkpt>
					<trkpt lat="46.206640" lon="6.146540">
						<ele>381</ele>
						<time>2025-12-16T11:11:13Z</time>
					</trkpt>
					<trkpt lat="46.206250" lon="6.144990">
						<ele>383</ele>
						<time>2025-12-16T11:11:51Z</time>
					</trkpt>
					<trkpt lat="46.205740" lon="6.143180">
						<ele>383</ele>
						<time>2025-12-16T11:12:36Z</time>
					</trkpt>
					<trkpt lat="46.205770" lon="6.143060">
						<ele>383</ele>
						<time>2025-12-16T11:12:39Z</time>
					</trkpt>
					<trkpt lat="46.205890" lon="6.142990">
						<ele>384</ele>
						<time>2025-12-16T11:12:44Z</time>
					</trkpt>
					<trkpt lat="46.206060" lon="6.143190">
						<ele>386</ele>
						<time>2025-12-16T11:12:51Z</time>
					</trkpt>
					<trkpt lat="46.206180" lon="6.143360">
						<ele>386</ele>
						<time>2025-12-16T11:12:56Z</time>
					</trkpt>
					<trkpt lat="46.206700" lon="6.144210">
						<ele>385</ele>
						<time>2025-12-16T11:13:23Z</time>
					</trkpt>
					<trkpt lat="46.206770" lon="6.144270">
						<ele>385</ele>
						<time>2025-12-16T11:13:25Z</time>
					</trkpt>
					<trkpt lat="46.207870" lon="6.145730">
						<ele>387</ele>
						<time>2025-12-16T11:14:15Z</time>
					</trkpt>
					<trkpt lat="46.207890" lon="6.145860">
						<ele>386</ele>
						<time>2025-12-16T11:14:18Z</time>
					</trkpt>
					<trkpt lat="46.207780" lon="6.146330">
						<ele>385</ele>
						<time>2025-12-16T11:14:30Z</time>
					</trkpt>
					<trkpt lat="46.207830" lon="6.146480">
						<ele>384</ele>
						<time>2025-12-16T11:14:34Z</time>
					</trkpt>
					<trkpt lat="46.208750" lon="6.147530">
						<ele>381</ele>
						<time>2025-12-16T11:15:13Z</time>
					</trkpt>
					<trkpt lat="46.208810" lon="6.147620">
						<ele>381</ele>
						<time>2025-12-16T11:15:16Z</time>
					</trkpt>
					<trkpt lat="46.208880" lon="6.148030">
						<ele>381</ele>
						<time>2025-12-16T11:15:25Z</time>
					</trkpt>
					<trkpt lat="46.210330" lon="6.149730">
						<ele>386</ele>
						<time>2025-12-16T11:16:28Z</time>
					</trkpt>
					<trkpt lat="46.211520" lon="6.151030">
						<ele>384</ele>
						<time>2025-12-16T11:17:17Z</time>
					</trkpt>
					<trkpt lat="46.211750" lon="6.150920">
						<ele>384</ele>
						<time>2025-12-16T11:17:25Z</time>
					</trkpt>
					<trkpt lat="46.213750" lon="6.151020">
						<ele>383</ele>
						<time>2025-12-16T11:18:32Z</time>
					</trkpt>
					<trkpt lat="46.213840" lon="6.150980">
						<ele>383</ele>
						<time>2025-12-16T11:18:35Z</time>
					</trkpt>
					<trkpt lat="46.213910" lon="6.150860">
						<ele>384</ele>
						<time>2025-12-16T11:18:39Z</time>
					</trkpt>
					<trkpt lat="46.213990" lon="6.150810">
						<ele>383</ele>
						<time>2025-12-16T11:18:42Z</time>
					</trkpt>
					<trkpt lat="46.214210" lon="6.150850">
						<ele>383</ele>
						<time>2025-12-16T11:18:49Z</time>
					</trkpt>
					<trkpt lat="46.215210" lon="6.150480">
						<ele>379</ele>
						<time>2025-12-16T11:19:24Z</time>
					</trkpt>
					<trkpt lat="46.215700" lon="6.150530">
						<ele>379</ele>
						<time>2025-12-16T11:19:40Z</time>
					</trkpt>
					<trkpt lat="46.215840" lon="6.150570">
						<ele>379</ele>
						<time>2025-12-16T11:19:45Z</time>
					</trkpt>
					<trkpt lat="46.216190" lon="6.150700">
						<ele>379</ele>
						<time>2025-12-16T11:19:57Z</time>
					</trkpt>
					<trkpt lat="46.216570" lon="6.150920">
						<ele>379</ele>
						<time>2025-12-16T11:20:11Z</time>
					</trkpt>
					<trkpt lat="46.216760" lon="6.151020">
						<ele>380</ele>
						<time>2025-12-16T11:20:17Z</time>
					</trkpt>
					<trkpt lat="46.216840" lon="6.150980">
						<ele>380</ele>
						<time>2025-12-16T11:20:20Z</time>
					</trkpt>
					<trkpt lat="46.216860" lon="6.151050">
						<ele>381</ele>
						<time>2025-12-16T11:20:22Z</time>
					</trkpt>
					<trkpt lat="46.216290" lon="6.151430">
						<ele>377</ele>
						<time>2025-12-16T11:20:43Z</time>
					</trkpt>
					<trkpt lat="46.215700" lon="6.151660">
						<ele>373</ele>
						<time>2025-12-16T11:21:03Z</time>
					</trkpt>
					<trkpt lat="46.214590" lon="6.151930">
						<ele>379</ele>
						<time>2025-12-16T11:21:41Z</time>
					</trkpt>
					<trkpt lat="46.213020" lon="6.152360">
						<ele>379</ele>
						<time>2025-12-16T11:22:34Z</time>
					</trkpt>
					<trkpt lat="46.211720" lon="6.152690">
						<ele>379</ele>
						<time>2025-12-16T11:23:18Z</time>
					</trkpt>
					<trkpt lat="46.211500" lon="6.152700">
						<ele>378</ele>
						<time>2025-12-16T11:23:25Z</time>
					</trkpt>
					<trkpt lat="46.208010" lon="6.149010">
						<ele>377</ele>
						<time>2025-12-16T11:25:50Z</time>
					</trkpt>
					<trkpt lat="46.207130" lon="6.148040">
						<ele>378</ele>
						<time>2025-12-16T11:26:27Z</time>
					</trkpt>
					<trkpt lat="46.206960" lon="6.147930">
						<ele>377</ele>
						<time>2025-12-16T11:26:33Z</time>
					</trkpt>
					<trkpt lat="46.206790" lon="6.147930">
						<ele>376</ele>
						<time>2025-12-16T11:26:39Z</time>
					</trkpt>
					<trkpt lat="46.206220" lon="6.148450">
						<ele>374</ele>
						<time>2025-12-16T11:27:01Z</time>
					</trkpt>
					</trkseg>
				</trk>
			</gpx>